start=new Date('2022-12-06T00:00:00.000Z').valueOf();
sats=[{"APOAPSIS":"541.740","INCLINATION":"53.2191","EPHEMERIS_TYPE":"0","DECAY_DATE":null,"TLE_LINE1":"1 52356U 22045AB  22339.73850812  .00000537  00000-0  51893-4 0  9992","REV_AT_EPOCH":"3614","COUNTRY_CODE":"US","EPOCH":"2022-12-05T17:43:27.101568","RCS_SIZE":"LARGE","LAUNCH_DATE":"2022-04-29","GP_ID":"219628131","OBJECT_TYPE":"PAYLOAD","ELEMENT_SET_NO":"999","SITE":"AFETR","TIME_SYSTEM":"UTC","FILE":"3682465","MEAN_ANOMALY":"301.0257","ARG_OF_PERICENTER":"59.1018","SEMIMAJOR_AXIS":"6917.883","PERIOD":"95.438","REF_FRAME":"TEME","MEAN_MOTION_DDOT":"0.0000000000000","OBJECT_NAME":"STARLINK-3801","PERIAPSIS":"537.757","MEAN_MOTION":"15.08839051","BSTAR":"0.00005189300000","OBJECT_ID":"2022-045AB","NORAD_CAT_ID":"52356","MEAN_MOTION_DOT":"0.00000537","MEAN_ELEMENT_THEORY":"SGP4","ECCENTRICITY":"0.00028790","TLE_LINE2":"2 52356  53.2191 141.0272 0002879  59.1018 301.0257 15.08839051 36143","RA_OF_ASC_NODE":"141.0272","CLASSIFICATION_TYPE":"U","CENTER_NAME":"EARTH"},{"BSTAR":"-0.00005288700000","MEAN_MOTION":"15.08846386","OBJECT_ID":"2022-045AC","PERIOD":"95.437","PERIAPSIS":"537.330","OBJECT_NAME":"STARLINK-3821","MEAN_MOTION_DDOT":"0.0000000000000","REF_FRAME":"TEME","SEMIMAJOR_AXIS":"6917.861","MEAN_ANOMALY":"306.4031","ARG_OF_PERICENTER":"53.7281","CENTER_NAME":"EARTH","CLASSIFICATION_TYPE":"U","RA_OF_ASC_NODE":"141.0020","TLE_LINE2":"2 52357  53.2169 141.0020 0003463  53.7281 306.4031 15.08846386 36140","ECCENTRICITY":"0.00034630","NORAD_CAT_ID":"52357","MEAN_ELEMENT_THEORY":"SGP4","MEAN_MOTION_DOT":"-0.00001131","EPOCH":"2022-12-05T17:52:40.226592","TLE_LINE1":"1 52357U 22045AC  22339.74491003 -.00001131  00000-0 -52887-4 0  9994","COUNTRY_CODE":"US","REV_AT_EPOCH":"3614","DECAY_DATE":null,"INCLINATION":"53.2169","EPHEMERIS_TYPE":"0","APOAPSIS":"542.122","FILE":"3682465","ELEMENT_SET_NO":"999","SITE":"AFETR","TIME_SYSTEM":"UTC","GP_ID":"219626885","OBJECT_TYPE":"PAYLOAD","LAUNCH_DATE":"2022-04-29","RCS_SIZE":"LARGE"},{"OBJECT_ID":"2022-045AD","BSTAR":"0.00038931000000","MEAN_MOTION":"15.08885148","OBJECT_NAME":"STARLINK-3837","PERIAPSIS":"537.329","MEAN_MOTION_DDOT":"0.0000000000000","REF_FRAME":"TEME","PERIOD":"95.435","SEMIMAJOR_AXIS":"6917.742","ARG_OF_PERICENTER":"45.5630","MEAN_ANOMALY":"314.5631","CENTER_NAME":"EARTH","CLASSIFICATION_TYPE":"U","RA_OF_ASC_NODE":"141.0807","TLE_LINE2":"2 52358  53.2207 141.0807 0003293  45.5630 314.5631 15.08885148 36140","ECCENTRICITY":"0.00032930","MEAN_ELEMENT_THEORY":"SGP4","MEAN_MOTION_DOT":"0.00005921","NORAD_CAT_ID":"52358","EPOCH":"2022-12-05T17:26:08.685888","TLE_LINE1":"1 52358U 22045AD  22339.72648942  .00005921  00000-0  38931-3 0  9991","REV_AT_EPOCH":"3614","COUNTRY_CODE":"US","DECAY_DATE":null,"INCLINATION":"53.2207","EPHEMERIS_TYPE":"0","APOAPSIS":"541.885","FILE":"3682465","TIME_SYSTEM":"UTC","ELEMENT_SET_NO":"999","SITE":"AFETR","OBJECT_TYPE":"PAYLOAD","GP_ID":"219627636","LAUNCH_DATE":"2022-04-29","RCS_SIZE":"LARGE"},{"EPOCH":"2022-12-05T17:47:23.127360","TLE_LINE1":"1 52359U 22045AE  22339.74123990  .00001559  00000-0  11606-3 0  9998","REV_AT_EPOCH":"3614","COUNTRY_CODE":"US","EPHEMERIS_TYPE":"0","INCLINATION":"53.2178","DECAY_DATE":null,"APOAPSIS":"541.961","FILE":"3682465","TIME_SYSTEM":"UTC","SITE":"AFETR","ELEMENT_SET_NO":"999","OBJECT_TYPE":"PAYLOAD","GP_ID":"219628383","RCS_SIZE":"LARGE","LAUNCH_DATE":"2022-04-29","OBJECT_ID":"2022-045AE","MEAN_MOTION":"15.08846535","BSTAR":"0.00011606000000","REF_FRAME":"TEME","MEAN_MOTION_DDOT":"0.0000000000000","PERIAPSIS":"537.490","OBJECT_NAME":"STARLINK-3853","PERIOD":"95.437","SEMIMAJOR_AXIS":"6917.860","ARG_OF_PERICENTER":"48.8324","MEAN_ANOMALY":"311.2946","CLASSIFICATION_TYPE":"U","CENTER_NAME":"EARTH","TLE_LINE2":"2 52359  53.2178 141.0197 0003231  48.8324 311.2946 15.08846535 36148","RA_OF_ASC_NODE":"141.0197","ECCENTRICITY":"0.00032310","MEAN_ELEMENT_THEORY":"SGP4","MEAN_MOTION_DOT":"0.00001559","NORAD_CAT_ID":"52359"},{"FILE":"3682465","TIME_SYSTEM":"UTC","SITE":"AFETR","ELEMENT_SET_NO":"999","OBJECT_TYPE":"PAYLOAD","GP_ID":"219628632","LAUNCH_DATE":"2022-04-29","RCS_SIZE":"LARGE","EPOCH":"2022-12-05T17:16:54.043680","REV_AT_EPOCH":"3626","TLE_LINE1":"1 52360U 22045AF  22339.72006995 -.00000579  00000-0 -18239-4 0  9996","COUNTRY_CODE":"US","DECAY_DATE":null,"INCLINATION":"53.2179","EPHEMERIS_TYPE":"0","APOAPSIS":"541.653","CENTER_NAME":"EARTH","CLASSIFICATION_TYPE":"U","RA_OF_ASC_NODE":"131.1144","TLE_LINE2":"2 52360  53.2179 131.1144 0002752  52.6184 307.5059 15.08838796 36263","ECCENTRICITY":"0.00027520","MEAN_ELEMENT_THEORY":"SGP4","MEAN_MOTION_DOT":"-0.00000579","NORAD_CAT_ID":"52360","OBJECT_ID":"2022-045AF","BSTAR":"-0.00001823900000","MEAN_MOTION":"15.08838796","OBJECT_NAME":"STARLINK-3824","PERIAPSIS":"537.845","MEAN_MOTION_DDOT":"0.0000000000000","REF_FRAME":"TEME","PERIOD":"95.438","SEMIMAJOR_AXIS":"6917.884","ARG_OF_PERICENTER":"52.6184","MEAN_ANOMALY":"307.5059"},{"RCS_SIZE":"LARGE","LAUNCH_DATE":"2022-04-29","OBJECT_TYPE":"PAYLOAD","GP_ID":"219627386","TIME_SYSTEM":"UTC","SITE":"AFETR","ELEMENT_SET_NO":"999","FILE":"3682465","APOAPSIS":"541.832","EPHEMERIS_TYPE":"0","INCLINATION":"53.2179","DECAY_DATE":null,"REV_AT_EPOCH":"3614","TLE_LINE1":"1 52361U 22045AG  22339.73388672  .00000049  00000-0  21218-4 0  9994","COUNTRY_CODE":"US","EPOCH":"2022-12-05T17:36:47.812608","MEAN_ELEMENT_THEORY":"SGP4","MEAN_MOTION_DOT":"0.00000049","NORAD_CAT_ID":"52361","ECCENTRICITY":"0.00030150","TLE_LINE2":"2 52361  53.2179 141.0471 0003015  50.8540 309.2720 15.08839654 36141","RA_OF_ASC_NODE":"141.0471","CLASSIFICATION_TYPE":"U","CENTER_NAME":"EARTH","ARG_OF_PERICENTER":"50.8540","MEAN_ANOMALY":"309.2720","SEMIMAJOR_AXIS":"6917.881","MEAN_MOTION_DDOT":"0.0000000000000","REF_FRAME":"TEME","OBJECT_NAME":"STARLINK-3728","PERIAPSIS":"537.661","PERIOD":"95.438","OBJECT_ID":"2022-045AG","MEAN_MOTION":"15.08839654","BSTAR":"0.00002121800000"},{"BSTAR":"0.00004905100000","MEAN_MOTION":"15.08844865","OBJECT_ID":"2022-045AH","PERIOD":"95.437","OBJECT_NAME":"STARLINK-3848","PERIAPSIS":"537.299","REF_FRAME":"TEME","MEAN_MOTION_DDOT":"0.0000000000000","SEMIMAJOR_AXIS":"6917.866","MEAN_ANOMALY":"313.5361","ARG_OF_PERICENTER":"46.5923","CENTER_NAME":"EARTH","CLASSIFICATION_TYPE":"U","RA_OF_ASC_NODE":"130.5289","TLE_LINE2":"2 52362  53.2173 130.5289 0003515  46.5923 313.5361 15.08844865 36293","ECCENTRICITY":"0.00035150","NORAD_CAT_ID":"52362","MEAN_ELEMENT_THEORY":"SGP4","MEAN_MOTION_DOT":"0.00000492","EPOCH":"2022-12-05T20:22:21.590400","TLE_LINE1":"1 52362U 22045AH  22339.84886100  .00000492  00000-0  49051-4 0  9993","COUNTRY_CODE":"US","REV_AT_EPOCH":"3629","DECAY_DATE":null,"INCLINATION":"53.2173","EPHEMERIS_TYPE":"0","APOAPSIS":"542.162","FILE":"3682465","SITE":"AFETR","ELEMENT_SET_NO":"999","TIME_SYSTEM":"UTC","GP_ID":"219627136","OBJECT_TYPE":"PAYLOAD","LAUNCH_DATE":"2022-04-29","RCS_SIZE":"LARGE"},{"EPOCH":"2022-12-05T17:31:28.471296","COUNTRY_CODE":"US","TLE_LINE1":"1 52363U 22045AJ  22339.73019064 -.00000100  00000-0  11844-4 0  9995","REV_AT_EPOCH":"3614","EPHEMERIS_TYPE":"0","INCLINATION":"53.2192","DECAY_DATE":null,"APOAPSIS":"541.722","FILE":"3682465","TIME_SYSTEM":"UTC","SITE":"AFETR","ELEMENT_SET_NO":"999","OBJECT_TYPE":"PAYLOAD","GP_ID":"219627884","RCS_SIZE":"LARGE","LAUNCH_DATE":"2022-04-29","OBJECT_ID":"2022-045AJ","MEAN_MOTION":"15.08844698","BSTAR":"0.00001184400000","REF_FRAME":"TEME","MEAN_MOTION_DDOT":"0.0000000000000","OBJECT_NAME":"STARLINK-3830","PERIAPSIS":"537.740","PERIOD":"95.437","SEMIMAJOR_AXIS":"6917.866","ARG_OF_PERICENTER":"50.5827","MEAN_ANOMALY":"309.5419","CLASSIFICATION_TYPE":"U","CENTER_NAME":"EARTH","TLE_LINE2":"2 52363  53.2192 141.0620 0002878  50.5827 309.5419 15.08844698 36147","RA_OF_ASC_NODE":"141.0620","ECCENTRICITY":"0.00028780","MEAN_MOTION_DOT":"-0.00000100","MEAN_ELEMENT_THEORY":"SGP4","NORAD_CAT_ID":"52363"},{"TLE_LINE2":"2 52364  53.2181 130.5414 0003364  53.4000 306.7301 15.08840546 36299","RA_OF_ASC_NODE":"130.5414","CLASSIFICATION_TYPE":"U","CENTER_NAME":"EARTH","MEAN_ELEMENT_THEORY":"SGP4","MEAN_MOTION_DOT":"0.00000315","NORAD_CAT_ID":"52364","ECCENTRICITY":"0.00033640","MEAN_MOTION_DDOT":"0.0000000000000","REF_FRAME":"TEME","PERIAPSIS":"537.417","OBJECT_NAME":"STARLINK-3820","PERIOD":"95.438","OBJECT_ID":"2022-045AK","MEAN_MOTION":"15.08840546","BSTAR":"0.00003793200000","ARG_OF_PERICENTER":"53.4000","MEAN_ANOMALY":"306.7301","SEMIMAJOR_AXIS":"6917.879","TIME_SYSTEM":"UTC","SITE":"AFETR","ELEMENT_SET_NO":"999","FILE":"3682465","RCS_SIZE":"LARGE","LAUNCH_DATE":"2022-04-29","OBJECT_TYPE":"PAYLOAD","GP_ID":"219628132","TLE_LINE1":"1 52364U 22045AK  22339.84246055  .00000315  00000-0  37932-4 0  9993","REV_AT_EPOCH":"3629","COUNTRY_CODE":"US","EPOCH":"2022-12-05T20:13:08.591520","APOAPSIS":"542.071","INCLINATION":"53.2181","EPHEMERIS_TYPE":"0","DECAY_DATE":null},{"COUNTRY_CODE":"US","TLE_LINE1":"1 52365U 22045AL  22339.72374866  .00000552  00000-0  52809-4 0  9996","REV_AT_EPOCH":"3627","EPOCH":"2022-12-05T17:22:11.884224","APOAPSIS":"541.585","EPHEMERIS_TYPE":"0","INCLINATION":"53.2185","DECAY_DATE":null,"SITE":"AFETR","ELEMENT_SET_NO":"999","TIME_SYSTEM":"UTC","FILE":"3682465","RCS_SIZE":"LARGE","LAUNCH_DATE":"2022-04-29","GP_ID":"219626886","OBJECT_TYPE":"PAYLOAD","PERIOD":"95.438","REF_FRAME":"TEME","MEAN_MOTION_DDOT":"0.0000000000000","OBJECT_NAME":"STARLINK-3874","PERIAPSIS":"537.917","MEAN_MOTION":"15.08838248","BSTAR":"0.00005280900000","OBJECT_ID":"2022-045AL","MEAN_ANOMALY":"302.3240","ARG_OF_PERICENTER":"57.8009","SEMIMAJOR_AXIS":"6917.886","TLE_LINE2":"2 52365  53.2185 131.0759 0002651  57.8009 302.3240 15.08838248 36275","RA_OF_ASC_NODE":"131.0759","CLASSIFICATION_TYPE":"U","CENTER_NAME":"EARTH","NORAD_CAT_ID":"52365","MEAN_ELEMENT_THEORY":"SGP4","MEAN_MOTION_DOT":"0.00000552","ECCENTRICITY":"0.00026510"}];
